[{"OBJECT_NAME":"STARLINK-4326","OBJECT_ID":"2022-077AQ","EPOCH":"2026-03-09T22:13:55.060608","MEAN_MOTION":15.01262959,"ECCENTRICITY":6.4e-5,"INCLINATION":97.6047,"RA_OF_ASC_NODE":250.428,"ARG_OF_PERICENTER":114.0681,"MEAN_ANOMALY":246.061,"EPHEMERIS_TYPE":0,"CLASSIFICATION_TYPE":"U","NORAD_CAT_ID":53081,"ELEMENT_SET_NO":999,"REV_AT_EPOCH":20095,"BSTAR":4.35826e-5,"MEAN_MOTION_DOT":5.02e-6,"MEAN_MOTION_DDOT":0},{"OBJECT_NAME":"COSMOS 375 DEB","OBJECT_ID":"1970-091V","EPOCH":"2026-03-09T22:01:47.731584","MEAN_MOTION":14.28591479,"ECCENTRICITY":0.04283998,"INCLINATION":62.7761,"RA_OF_ASC_NODE":80.9886,"ARG_OF_PERICENTER":147.2789,"MEAN_ANOMALY":215.5608,"EPHEMERIS_TYPE":0,"CLASSIFICATION_TYPE":"U","NORAD_CAT_ID":4724,"ELEMENT_SET_NO":999,"REV_AT_EPOCH":74498,"BSTAR":0.00071367249,"MEAN_MOTION_DOT":4.733e-5,"MEAN_MOTION_DDOT":0}]
